{
  "type": "FeatureCollection",
  "features": [
    {
      "type": "Feature",
      "properties": {
        "norad_id": 34750,
        "name": "COSMOS 2251 DEB",
        "group": "cosmos-2251-debris",
        "lat": -12.776742902727026,
        "lon": 36.07465469217966,
        "alt_km": 668.3645592556995,
        "timestamp": "2025-12-07T03:52:32.897634+00:00",
        "meta_object_name": "COSMOS 2251 DEB",
        "meta_object_id": "1993-036ZU",
        "meta_epoch": "2025-12-06T15:38:03.500160",
        "meta_mean_motion": 14.61233687,
        "meta_eccentricity": 0.0039159,
        "meta_inclination": 74.1079,
        "meta_ra_of_asc_node": 213.341,
        "meta_arg_of_pericenter": 168.532,
        "meta_mean_anomaly": 222.4,
        "meta_ephemeris_type": 0,
        "meta_classification_type": "U",
        "meta_norad_cat_id": 34750,
        "meta_element_set_no": 999,
        "meta_rev_at_epoch": 88142,
        "meta_bstar": 0.001746963,
        "meta_mean_motion_dot": 8.688e-05,
        "meta_mean_motion_ddot": 0,
        "tle_line1": "1 34750U 93036ZU  25340.65142940  .00008688  00000+0  17470-2 0  9995",
        "tle_line2": "2 34750  74.1079 213.3410 0039159 168.5320 222.4000 14.61233687881429"
      },
      "geometry": {
        "type": "Point",
        "coordinates": [
          36.07465469217966,
          -12.776742902727026
        ]
      }
    },
    {
      "type": "Feature",
      "properties": {
        "norad_id": 34752,
        "name": "COSMOS 2251 DEB",
        "group": "cosmos-2251-debris",
        "lat": -70.81047030347426,
        "lon": -43.50347524127309,
        "alt_km": 599.4817197693756,
        "timestamp": "2025-12-07T03:52:32.897645+00:00",
        "meta_object_name": "COSMOS 2251 DEB",
        "meta_object_id": "1993-036ZW",
        "meta_epoch": "2025-12-06T02:36:58.038912",
        "meta_mean_motion": 14.9970291,
        "meta_eccentricity": 0.00481191,
        "meta_inclination": 74.0135,
        "meta_ra_of_asc_node": 14.0973,
        "meta_arg_of_pericenter": 144.9255,
        "meta_mean_anomaly": 215.5117,
        "meta_ephemeris_type": 0,
        "meta_classification_type": "U",
        "meta_norad_cat_id": 34752,
        "meta_element_set_no": 999,
        "meta_rev_at_epoch": 89750,
        "meta_bstar": 0.0014680231,
        "meta_mean_motion_dot": 0.00018574,
        "meta_mean_motion_ddot": 0,
        "tle_line1": "1 34752U 93036ZW  25340.10900508  .00018574  00000+0  14680-2 0  9994",
        "tle_line2": "2 34752  74.0135  14.0973 0048119 144.9255 215.5117 14.99702910897503"
      },
      "geometry": {
        "type": "Point",
        "coordinates": [
          -43.50347524127309,
          -70.81047030347426
        ]
      }
    },
    {
      "type": "Feature",
      "properties": {
        "norad_id": 34754,
        "name": "COSMOS 2251 DEB",
        "group": "cosmos-2251-debris",
        "lat": 4.7941234160806,
        "lon": -120.70320847491776,
        "alt_km": 738.3220619271015,
        "timestamp": "2025-12-07T03:52:32.897655+00:00",
        "meta_object_name": "COSMOS 2251 DEB",
        "meta_object_id": "1993-036ZY",
        "meta_epoch": "2025-12-06T11:25:41.496672",
        "meta_mean_motion": 14.40467859,
        "meta_eccentricity": 0.00293068,
        "meta_inclination": 74.0305,
        "meta_ra_of_asc_node": 239.1878,
        "meta_arg_of_pericenter": 356.4834,
        "meta_mean_anomaly": 56.1535,
        "meta_ephemeris_type": 0,
        "meta_classification_type": "U",
        "meta_norad_cat_id": 34754,
        "meta_element_set_no": 999,
        "meta_rev_at_epoch": 88043,
        "meta_bstar": 0.00043247475,
        "meta_mean_motion_dot": 1.356e-05,
        "meta_mean_motion_ddot": 0,
        "tle_line1": "1 34754U 93036ZY  25340.47617473  .00001356  00000+0  43247-3 0  9994",
        "tle_line2": "2 34754  74.0305 239.1878 0029306 356.4834  56.1535 14.40467859880431"
      },
      "geometry": {
        "type": "Point",
        "coordinates": [
          -120.70320847491776,
          4.7941234160806
        ]
      }
    },
    {
      "type": "Feature",
      "properties": {
        "norad_id": 34755,
        "name": "COSMOS 2251 DEB",
        "group": "cosmos-2251-debris",
        "lat": 56.86467709749263,
        "lon": 92.77942404454357,
        "alt_km": 1347.8525042696856,
        "timestamp": "2025-12-07T03:52:32.897666+00:00",
        "meta_object_name": "COSMOS 2251 DEB",
        "meta_object_id": "1993-036ZZ",
        "meta_epoch": "2025-12-06T06:15:56.155968",
        "meta_mean_motion": 13.50527747,
        "meta_eccentricity": 0.04083359,
        "meta_inclination": 73.9257,
        "meta_ra_of_asc_node": 300.4376,
        "meta_arg_of_pericenter": 321.3998,
        "meta_mean_anomaly": 100.0607,
        "meta_ephemeris_type": 0,
        "meta_classification_type": "U",
        "meta_norad_cat_id": 34755,
        "meta_element_set_no": 999,
        "meta_rev_at_epoch": 82436,
        "meta_bstar": 0.0032895086,
        "meta_mean_motion_dot": 3.526e-05,
        "meta_mean_motion_ddot": 0,
        "tle_line1": "1 34755U 93036ZZ  25340.26106662  .00003526  00000+0  32895-2 0  9992",
        "tle_line2": "2 34755  73.9257 300.4376 0408335 321.3998 100.0607 13.50527747824368"
      },
      "geometry": {
        "type": "Point",
        "coordinates": [
          92.77942404454357,
          56.86467709749263
        ]
      }
    },
    {
      "type": "Feature",
      "properties": {
        "norad_id": 34756,
        "name": "COSMOS 2251 DEB",
        "group": "cosmos-2251-debris",
        "lat": 49.47950474162512,
        "lon": 133.1545685816761,
        "alt_km": 877.407502149912,
        "timestamp": "2025-12-07T03:52:32.897676+00:00",
        "meta_object_name": "COSMOS 2251 DEB",
        "meta_object_id": "1993-036AAA",
        "meta_epoch": "2025-12-06T15:20:34.011456",
        "meta_mean_motion": 13.67223659,
        "meta_eccentricity": 0.03447029,
        "meta_inclination": 74.0022,
        "meta_ra_of_asc_node": 114.4011,
        "meta_arg_of_pericenter": 351.5473,
        "meta_mean_anomaly": 7.9922,
        "meta_ephemeris_type": 0,
        "meta_classification_type": "U",
        "meta_norad_cat_id": 34756,
        "meta_element_set_no": 999,
        "meta_rev_at_epoch": 83338,
        "meta_bstar": 0.0013877943,
        "meta_mean_motion_dot": 1.734e-05,
        "meta_mean_motion_ddot": 0,
        "tle_line1": "1 34756U 93036AAA 25340.63928254  .00001734  00000+0  13878-2 0  9992",
        "tle_line2": "2 34756  74.0022 114.4011 0344702 351.5473   7.9922 13.67223659833380"
      },
      "geometry": {
        "type": "Point",
        "coordinates": [
          133.1545685816761,
          49.47950474162512
        ]
      }
    },
    {
      "type": "Feature",
      "properties": {
        "norad_id": 34758,
        "name": "COSMOS 2251 DEB",
        "group": "cosmos-2251-debris",
        "lat": -18.075611176248316,
        "lon": -56.86102115958973,
        "alt_km": 1047.7316756974315,
        "timestamp": "2025-12-07T03:52:32.897687+00:00",
        "meta_object_name": "COSMOS 2251 DEB",
        "meta_object_id": "1993-036AAC",
        "meta_epoch": "2025-12-06T08:31:13.087776",
        "meta_mean_motion": 13.58041797,
        "meta_eccentricity": 0.03808027,
        "meta_inclination": 74.1071,
        "meta_ra_of_asc_node": 309.7717,
        "meta_arg_of_pericenter": 75.0268,
        "meta_mean_anomaly": 289.2663,
        "meta_ephemeris_type": 0,
        "meta_classification_type": "U",
        "meta_norad_cat_id": 34758,
        "meta_element_set_no": 999,
        "meta_rev_at_epoch": 82823,
        "meta_bstar": 0.0017403081,
        "meta_mean_motion_dot": 2.002e-05,
        "meta_mean_motion_ddot": 0,
        "tle_line1": "1 34758U 93036AAC 25340.35501259  .00002002  00000+0  17403-2 0  9992",
        "tle_line2": "2 34758  74.1071 309.7717 0380802  75.0268 289.2663 13.58041797828236"
      },
      "geometry": {
        "type": "Point",
        "coordinates": [
          -56.86102115958973,
          -18.075611176248316
        ]
      }
    },
    {
      "type": "Feature",
      "properties": {
        "norad_id": 34760,
        "name": "COSMOS 2251 DEB",
        "group": "cosmos-2251-debris",
        "lat": 72.5859434622031,
        "lon": 17.965228599585302,
        "alt_km": 803.6118226232684,
        "timestamp": "2025-12-07T03:52:32.897698+00:00",
        "meta_object_name": "COSMOS 2251 DEB",
        "meta_object_id": "1993-036AAE",
        "meta_epoch": "2025-12-02T15:48:08.179200",
        "meta_mean_motion": 14.19524364,
        "meta_eccentricity": 0.00962533,
        "meta_inclination": 74.0627,
        "meta_ra_of_asc_node": 320.3503,
        "meta_arg_of_pericenter": 14.8263,
        "meta_mean_anomaly": 104.0636,
        "meta_ephemeris_type": 0,
        "meta_classification_type": "U",
        "meta_norad_cat_id": 34760,
        "meta_element_set_no": 999,
        "meta_rev_at_epoch": 86545,
        "meta_bstar": 0.00087310198,
        "meta_mean_motion_dot": 1.903e-05,
        "meta_mean_motion_ddot": 0,
        "tle_line1": "1 34760U 93036AAE 25336.65842800  .00001903  00000+0  87310-3 0  9997",
        "tle_line2": "2 34760  74.0627 320.3503 0096253  14.8263 104.0636 14.19524364865450"
      },
      "geometry": {
        "type": "Point",
        "coordinates": [
          17.965228599585302,
          72.5859434622031
        ]
      }
    }
  ]
}